ORBCOMM FM06            
1 25118U 97084G   26176.55591753  .00001214  00000+0  36570-3 0  9998
2 25118  45.0150  12.4244 0000328   6.6137  22.4505 14.47582248495604
ORBCOMM FM04            
1 25159U 98007C   26176.54627221  .00000784  00000+0  31358-3 0  9998
2 25159 107.9627 186.6237 0041569 310.4036  49.3481 14.35755296477791
ORBCOMM FM19            
1 25415U 98046C   26176.40079185  .00000627  00000+0  24449-3 0  9990
2 25415  44.9920 204.5186 0004408 315.5673  59.4960 14.39507192457964
ORBCOMM FM20            
1 25416U 98046D   26176.41884505  .00000443  00000+0  19147-3 0  9997
2 25416  44.9922 212.4464 0002489 277.6105  82.4460 14.38074913457970
ORBCOMM FM27            
1 25481U 98053G   26175.61526848  .00000718  00000+0  27540-3 0  9992
2 25481  45.0061 300.0730 0001690 221.9387 138.1332 14.39153668451309
ORBCOMM FM32            
1 25982U 99065C   26175.93714606  .00000554  00000+0  23221-3 0  9998
2 25982  45.0137 136.5551 0004262  80.4655 279.6675 14.37139190388207
ORBCOMM FM109           
1 40086U 14040A   26176.38527577  .00000426  00000+0  12639-3 0  9998
2 40086  47.0038  52.7267 0001969 267.9134  92.1526 14.58853571635543
ORBCOMM FM110           
1 41182U 15081D   26175.84279752  .00000566  00000+0  15591-3 0  9996
2 41182  47.0030 325.2449 0002554 122.0857 238.0278 14.58890386558743
ORBCOMM FM118           
1 41183U 15081E   26175.67161399  .00000319  00000+0  10370-3 0  9991
2 41183  47.0055 326.3870 0002330  70.8338 289.2800 14.58884422558829
ORBCOMM FM112           
1 41184U 15081F   26176.49784057  .00000383  00000+0  11714-3 0  9999
2 41184  46.9976 230.9484 0004072 250.8293 109.2152 14.58913169560168
ORBCOMM FM113           
1 41185U 15081G   26175.85835780  .00000236  00000+0  86127-4 0  9997
2 41185  46.9996 234.3526 0002552 251.1934 108.8675 14.58864475560051
ORBCOMM FM108           
1 41187U 15081J   26175.95764863  .00000420  00000+0  12507-3 0  9998
2 41187  47.0038 145.4578 0003137 251.0039 109.0507 14.58881881561212
ORBCOMM FM117           
1 41188U 15081K   26176.19715664  .00000265  00000+0  92277-4 0  9991
2 41188  46.9999 142.9570 0003660 255.2052 104.8429 14.58870148561291
ORBCOMM FM116           
1 41189U 15081L   26176.51992164  .00000412  00000+0  12318-3 0  9991
2 41189  47.0011 231.2222 0000644 150.1988 209.8935 14.58892527560152
